[{"OBJECT_NAME":"STARLINK-30136","OBJECT_ID":"2023-079X","EPOCH":"2026-03-09T22:00:01.999584","MEAN_MOTION":15.19398117,"ECCENTRICITY":0.00021819,"INCLINATION":42.9997,"RA_OF_ASC_NODE":105.423,"ARG_OF_PERICENTER":293.1714,"MEAN_ANOMALY":139.2854,"EPHEMERIS_TYPE":0,"CLASSIFICATION_TYPE":"U","NORAD_CAT_ID":56844,"ELEMENT_SET_NO":999,"REV_AT_EPOCH":573,"BSTAR":0.0032058096,"MEAN_MOTION_DOT":0.00069572,"MEAN_MOTION_DDOT":0},{"OBJECT_NAME":"YAOGAN-39 05B","OBJECT_ID":"2023-194B","EPOCH":"2026-03-09T22:41:30.344640","MEAN_MOTION":15.16655635,"ECCENTRICITY":0.00092836,"INCLINATION":34.9938,"RA_OF_ASC_NODE":339.811,"ARG_OF_PERICENTER":155.8155,"MEAN_ANOMALY":204.2995,"EPHEMERIS_TYPE":0,"CLASSIFICATION_TYPE":"U","NORAD_CAT_ID":58558,"ELEMENT_SET_NO":999,"REV_AT_EPOCH":12501,"BSTAR":0.00038892506,"MEAN_MOTION_DOT":7.768e-5,"MEAN_MOTION_DDOT":0}]
